ONEWEB-0233             
1 48795U 21045AE  24342.50829974 -.00000034  00000+0 -12389-3 0  9998
2 48795  87.9074  10.0721 0001483  89.8844 270.2456 13.15547476171107
ONEWEB-0190             
1 48796U 21045AF  24342.57088440 -.00000080  00000+0 -24707-3 0  9999
2 48796  87.9076  10.0210 0001350  63.6985 296.4283 13.15548656171189
ONEWEB-0236             
1 48797U 21045AG  24342.51225849  .00000015  00000+0  57738-5 0  9998
2 48797  87.9079  10.0331 0001640  93.7277 266.4041 13.15548258171061
ONEWEB-0248             
1 48798U 21045AH  24342.52492975  .00000109  00000+0  25582-3 0  9990
2 48798  87.9071  10.0061 0001014  90.0646 270.0600 13.15548546172343
ONEWEB-0225             
1 48799U 21045AJ  24342.54711781  .00000119  00000+0  28194-3 0  9995
2 48799  87.9076  10.0221 0001502  82.7873 277.3428 13.15548426171231
ONEWEB-0215             
1 48800U 21045AK  24342.51700979  .00000069  00000+0  14849-3 0  9998
2 48800  87.9069   9.9922 0001104  76.1927 283.9326 13.15548232171107
ONEWEB-0216             
1 48801U 21045AL  24342.45044949  .00000161  00000+0  39298-3 0  9998
2 48801  87.9072  10.0485 0001926  88.5872 271.5479 13.15546788171103
ONEWEB-0239             
1 48802U 21045AM  24342.53126645  .00000162  00000+0  39626-3 0  9998
2 48802  87.9081  10.0235 0000869  85.1227 275.0002 13.15547734171157
